{"type":"FeatureCollection","features":[{"type":"Feature","geometry":{"type":"Polygon","coordinates":[[[55.462833,25.221843],[55.462642,25.225382],[55.46207,25.228887],[55.461124,25.232325],[55.459812,25.235661],[55.458147,25.238865],[55.456145,25.241904],[55.453825,25.24475],[55.451209,25.247376],[55.448324,25.249755],[55.445195,25.251866],[55.441855,25.253688],[55.438334,25.255203],[55.434667,25.256397],[55.430889,25.257258],[55.427037,25.257778],[55.423147,25.257952],[55.419257,25.257778],[55.415405,25.257258],[55.411627,25.256397],[55.40796,25.255203],[55.404439,25.253688],[55.401099,25.251866],[55.39797,25.249755],[55.395085,25.247376],[55.392469,25.24475],[55.390149,25.241904],[55.388147,25.238865],[55.386482,25.235661],[55.38517,25.232325],[55.384224,25.228887],[55.383652,25.225382],[55.383461,25.221843],[55.383652,25.218304],[55.384224,25.214799],[55.38517,25.211361],[55.386482,25.208025],[55.388147,25.204821],[55.390149,25.201782],[55.392469,25.198936],[55.395085,25.19631],[55.39797,25.193931],[55.401099,25.19182],[55.404439,25.189998],[55.40796,25.188483],[55.411627,25.187289],[55.415405,25.186428],[55.419257,25.185908],[55.423147,25.185734],[55.427037,25.185908],[55.430889,25.186428],[55.434667,25.187289],[55.438334,25.188483],[55.441855,25.189998],[55.445195,25.19182],[55.448324,25.193931],[55.451209,25.19631],[55.453825,25.198936],[55.456145,25.201782],[55.458147,25.204821],[55.459812,25.208025],[55.461124,25.211361],[55.46207,25.214799],[55.462642,25.218304],[55.462833,25.221843]]]},"properties":{"branch_id":"BD01","name":"Bedashing Beauty Lounge Mirdif 35","radius_m":4000,"urban_context":"suburban","recommendation":"HOLD","overlapped_share":0.4303}},{"type":"Feature","geometry":{"type":"Polygon","coordinates":[[[55.47022,25.334386],[55.470029,25.337925],[55.469457,25.34143],[55.468509,25.344868],[55.467196,25.348204],[55.465529,25.351407],[55.463525,25.354447],[55.461203,25.357293],[55.458585,25.359918],[55.455697,25.362298],[55.452566,25.364409],[55.449222,25.366231],[55.445698,25.367746],[55.442028,25.368939],[55.438247,25.3698],[55.434391,25.37032],[55.430497,25.370494],[55.426603,25.37032],[55.422747,25.3698],[55.418966,25.368939],[55.415296,25.367746],[55.411772,25.366231],[55.408428,25.364409],[55.405297,25.362298],[55.402409,25.359918],[55.399791,25.357293],[55.397469,25.354447],[55.395465,25.351407],[55.393798,25.348204],[55.392485,25.344868],[55.391537,25.34143],[55.390965,25.337925],[55.390774,25.334386],[55.390965,25.330847],[55.391537,25.327342],[55.392485,25.323904],[55.393798,25.320568],[55.395465,25.317365],[55.397469,25.314325],[55.399791,25.311479],[55.402409,25.308854],[55.405297,25.306474],[55.408428,25.304363],[55.411772,25.302541],[55.415296,25.301026],[55.418966,25.299833],[55.422747,25.298972],[55.426603,25.298452],[55.430497,25.298278],[55.434391,25.298452],[55.438247,25.298972],[55.442028,25.299833],[55.445698,25.301026],[55.449222,25.302541],[55.452566,25.304363],[55.455697,25.306474],[55.458585,25.308854],[55.461203,25.311479],[55.463525,25.314325],[55.465529,25.317365],[55.467196,25.320568],[55.468509,25.323904],[55.469457,25.327342],[55.470029,25.330847],[55.47022,25.334386]]]},"properties":{"branch_id":"BD02","name":"Bedashing Beauty Studio Zawaya Walk","radius_m":4000,"urban_context":"suburban","recommendation":"HOLD","overlapped_share":0.0479}},{"type":"Feature","geometry":{"type":"Polygon","coordinates":[[[55.286675,25.208159],[55.286556,25.210371],[55.286198,25.212562],[55.285607,25.21471],[55.284787,25.216795],[55.283746,25.218797],[55.282495,25.220697],[55.281045,25.222476],[55.279411,25.224117],[55.277608,25.225604],[55.275653,25.226924],[55.273565,25.228062],[55.271365,25.229009],[55.269073,25.229755],[55.266712,25.230293],[55.264305,25.230618],[55.261874,25.230727],[55.259443,25.230618],[55.257036,25.230293],[55.254675,25.229755],[55.252383,25.229009],[55.250183,25.228062],[55.248095,25.226924],[55.24614,25.225604],[55.244337,25.224117],[55.242703,25.222476],[55.241253,25.220697],[55.240002,25.218797],[55.238961,25.216795],[55.238141,25.21471],[55.23755,25.212562],[55.237192,25.210371],[55.237073,25.208159],[55.237192,25.205947],[55.23755,25.203756],[55.238141,25.201608],[55.238961,25.199523],[55.240002,25.197521],[55.241253,25.195621],[55.242703,25.193842],[55.244337,25.192201],[55.24614,25.190714],[55.248095,25.189394],[55.250183,25.188256],[55.252383,25.187309],[55.254675,25.186563],[55.257036,25.186025],[55.259443,25.1857],[55.261874,25.185591],[55.264305,25.1857],[55.266712,25.186025],[55.269073,25.186563],[55.271365,25.187309],[55.273565,25.188256],[55.275653,25.189394],[55.277608,25.190714],[55.279411,25.192201],[55.281045,25.193842],[55.282495,25.195621],[55.283746,25.197521],[55.284787,25.199523],[55.285607,25.201608],[55.286198,25.203756],[55.286556,25.205947],[55.286675,25.208159]]]},"properties":{"branch_id":"BD03","name":"Bedashing Beauty Lounge City Walk","radius_m":2500,"urban_context":"dense_urban","recommendation":"HOLD","overlapped_share":0.0}},{"type":"Feature","geometry":{"type":"Polygon","coordinates":[[[55.470507,25.18902],[55.470316,25.192559],[55.469745,25.196065],[55.468799,25.199502],[55.467487,25.202838],[55.465822,25.206042],[55.463821,25.209081],[55.461501,25.211927],[55.458887,25.214553],[55.456002,25.216933],[55.452874,25.219043],[55.449535,25.220865],[55.446015,25.22238],[55.442349,25.223574],[55.438572,25.224435],[55.434721,25.224955],[55.430832,25.225129],[55.426943,25.224955],[55.423092,25.224435],[55.419315,25.223574],[55.415649,25.22238],[55.412129,25.220865],[55.40879,25.219043],[55.405662,25.216933],[55.402777,25.214553],[55.400163,25.211927],[55.397843,25.209081],[55.395842,25.206042],[55.394177,25.202838],[55.392865,25.199502],[55.391919,25.196065],[55.391348,25.192559],[55.391157,25.18902],[55.391348,25.185481],[55.391919,25.181975],[55.392865,25.178538],[55.394177,25.175202],[55.395842,25.171998],[55.397843,25.168959],[55.400163,25.166113],[55.402777,25.163487],[55.405662,25.161107],[55.40879,25.158997],[55.412129,25.157175],[55.415649,25.15566],[55.419315,25.154466],[55.423092,25.153605],[55.426943,25.153085],[55.430832,25.152911],[55.434721,25.153085],[55.438572,25.153605],[55.442349,25.154466],[55.446015,25.15566],[55.449535,25.157175],[55.452874,25.158997],[55.456002,25.161107],[55.458887,25.163487],[55.461501,25.166113],[55.463821,25.168959],[55.465822,25.171998],[55.467487,25.175202],[55.468799,25.178538],[55.469745,25.181975],[55.470316,25.185481],[55.470507,25.18902]]]},"properties":{"branch_id":"BD04","name":"Bedashing Beauty Lounge Al Warqa City Mall","radius_m":4000,"urban_context":"suburban","recommendation":"SHRINK","overlapped_share":0.5599}},{"type":"Feature","geometry":{"type":"Polygon","coordinates":[[[55.423767,25.14563],[55.42348,25.150939],[55.422624,25.156197],[55.421205,25.161353],[55.419238,25.166358],[55.416742,25.171163],[55.413741,25.175722],[55.410263,25.179991],[55.406342,25.18393],[55.402016,25.187499],[55.397327,25.190665],[55.392319,25.193398],[55.387042,25.195671],[55.381545,25.197461],[55.375881,25.198753],[55.370106,25.199533],[55.364275,25.199794],[55.358444,25.199533],[55.352669,25.198753],[55.347005,25.197461],[55.341508,25.195671],[55.336231,25.193398],[55.331223,25.190665],[55.326534,25.187499],[55.322208,25.18393],[55.318287,25.179991],[55.314809,25.175722],[55.311808,25.171163],[55.309312,25.166358],[55.307345,25.161353],[55.305926,25.156197],[55.30507,25.150939],[55.304783,25.14563],[55.30507,25.140321],[55.305926,25.135063],[55.307345,25.129907],[55.309312,25.124902],[55.311808,25.120097],[55.314809,25.115538],[55.318287,25.111269],[55.322208,25.10733],[55.326534,25.103761],[55.331223,25.100595],[55.336231,25.097862],[55.341508,25.095589],[55.347005,25.093799],[55.352669,25.092507],[55.358444,25.091727],[55.364275,25.091466],[55.370106,25.091727],[55.375881,25.092507],[55.381545,25.093799],[55.387042,25.095589],[55.392319,25.097862],[55.397327,25.100595],[55.402016,25.103761],[55.406342,25.10733],[55.410263,25.111269],[55.413741,25.115538],[55.416742,25.120097],[55.419238,25.124902],[55.421205,25.129907],[55.422624,25.135063],[55.42348,25.140321],[55.423767,25.14563]]]},"properties":{"branch_id":"BD05","name":"Bedashing Nad Al Sheba","radius_m":6000,"urban_context":"low_density","recommendation":"HOLD","overlapped_share":0.0575}},{"type":"Feature","geometry":{"type":"Polygon","coordinates":[[[55.251179,25.159764],[55.25106,25.161976],[55.250703,25.164167],[55.250112,25.166315],[55.249292,25.1684],[55.248252,25.170403],[55.247001,25.172302],[55.245552,25.174081],[55.243918,25.175722],[55.242115,25.177209],[55.240161,25.178529],[55.238074,25.179667],[55.235875,25.180614],[55.233584,25.18136],[55.231225,25.181899],[55.228818,25.182224],[55.226388,25.182332],[55.223958,25.182224],[55.221551,25.181899],[55.219192,25.18136],[55.216901,25.180614],[55.214702,25.179667],[55.212615,25.178529],[55.210661,25.177209],[55.208858,25.175722],[55.207224,25.174081],[55.205775,25.172302],[55.204524,25.170403],[55.203484,25.1684],[55.202664,25.166315],[55.202073,25.164167],[55.201716,25.161976],[55.201597,25.159764],[55.201716,25.157552],[55.202073,25.155361],[55.202664,25.153213],[55.203484,25.151128],[55.204524,25.149125],[55.205775,25.147226],[55.207224,25.145447],[55.208858,25.143806],[55.210661,25.142319],[55.212615,25.140999],[55.214702,25.139861],[55.216901,25.138914],[55.219192,25.138168],[55.221551,25.137629],[55.223958,25.137304],[55.226388,25.137196],[55.228818,25.137304],[55.231225,25.137629],[55.233584,25.138168],[55.235875,25.138914],[55.238074,25.139861],[55.240161,25.140999],[55.242115,25.142319],[55.243918,25.143806],[55.245552,25.145447],[55.247001,25.147226],[55.248252,25.149125],[55.249292,25.151128],[55.250112,25.153213],[55.250703,25.155361],[55.25106,25.157552],[55.251179,25.159764]]]},"properties":{"branch_id":"BD06","name":"Bedashing Elegance Lounge Al Safa 2","radius_m":2500,"urban_context":"dense_urban","recommendation":"HOLD","overlapped_share":0.0}},{"type":"Feature","geometry":{"type":"Polygon","coordinates":[[[55.240844,25.102375],[55.240725,25.104587],[55.240368,25.106778],[55.239777,25.108926],[55.238958,25.111012],[55.237919,25.113014],[55.236668,25.114913],[55.23522,25.116692],[55.233587,25.118333],[55.231785,25.119821],[55.229832,25.12114],[55.227746,25.122279],[55.225548,25.123225],[55.223258,25.123972],[55.220899,25.12451],[55.218494,25.124835],[55.216065,25.124943],[55.213636,25.124835],[55.211231,25.12451],[55.208872,25.123972],[55.206582,25.123225],[55.204384,25.122279],[55.202298,25.12114],[55.200345,25.119821],[55.198543,25.118333],[55.19691,25.116692],[55.195462,25.114913],[55.194211,25.113014],[55.193172,25.111012],[55.192353,25.108926],[55.191762,25.106778],[55.191405,25.104587],[55.191286,25.102375],[55.191405,25.100163],[55.191762,25.097972],[55.192353,25.095824],[55.193172,25.093738],[55.194211,25.091736],[55.195462,25.089837],[55.19691,25.088058],[55.198543,25.086417],[55.200345,25.084929],[55.202298,25.08361],[55.204384,25.082471],[55.206582,25.081525],[55.208872,25.080778],[55.211231,25.08024],[55.213636,25.079915],[55.216065,25.079807],[55.218494,25.079915],[55.220899,25.08024],[55.223258,25.080778],[55.225548,25.081525],[55.227746,25.082471],[55.229832,25.08361],[55.231785,25.084929],[55.233587,25.086417],[55.23522,25.088058],[55.236668,25.089837],[55.237919,25.091736],[55.238958,25.093738],[55.239777,25.095824],[55.240368,25.097972],[55.240725,25.100163],[55.240844,25.102375]]]},"properties":{"branch_id":"BD07","name":"Bedashing Beauty Suite Umm Suqeim","radius_m":2500,"urban_context":"dense_urban","recommendation":"HOLD","overlapped_share":0.0084}},{"type":"Feature","geometry":{"type":"Polygon","coordinates":[[[55.526019,25.295924],[55.525828,25.299463],[55.525256,25.302968],[55.524309,25.306406],[55.522996,25.309742],[55.52133,25.312945],[55.519327,25.315985],[55.517005,25.318831],[55.514388,25.321457],[55.511501,25.323836],[55.508371,25.325947],[55.505028,25.327769],[55.501505,25.329284],[55.497836,25.330478],[55.494056,25.331339],[55.490201,25.331859],[55.486309,25.332032],[55.482417,25.331859],[55.478562,25.331339],[55.474782,25.330478],[55.471113,25.329284],[55.46759,25.327769],[55.464247,25.325947],[55.461117,25.323836],[55.45823,25.321457],[55.455613,25.318831],[55.453291,25.315985],[55.451288,25.312945],[55.449622,25.309742],[55.448309,25.306406],[55.447362,25.302968],[55.44679,25.299463],[55.446599,25.295924],[55.44679,25.292385],[55.447362,25.28888],[55.448309,25.285442],[55.449622,25.282106],[55.451288,25.278903],[55.453291,25.275863],[55.455613,25.273017],[55.45823,25.270391],[55.461117,25.268012],[55.464247,25.265901],[55.46759,25.264079],[55.471113,25.262564],[55.474782,25.26137],[55.478562,25.260509],[55.482417,25.259989],[55.486309,25.259816],[55.490201,25.259989],[55.494056,25.260509],[55.497836,25.26137],[55.501505,25.262564],[55.505028,25.264079],[55.508371,25.265901],[55.511501,25.268012],[55.514388,25.270391],[55.517005,25.273017],[55.519327,25.275863],[55.52133,25.278903],[55.522996,25.282106],[55.524309,25.285442],[55.525256,25.28888],[55.525828,25.292385],[55.526019,25.295924]]]},"properties":{"branch_id":"BD08","name":"Bedashing Glam Haven Muwaileh","radius_m":4000,"urban_context":"suburban","recommendation":"HOLD","overlapped_share":0.0478}},{"type":"Feature","geometry":{"type":"Polygon","coordinates":[[[55.214262,25.046941],[55.213976,25.05225],[55.21312,25.057508],[55.211702,25.062664],[55.209737,25.067669],[55.207243,25.072474],[55.204244,25.077033],[55.200769,25.081303],[55.196851,25.085241],[55.192529,25.088811],[55.187843,25.091977],[55.18284,25.09471],[55.177566,25.096982],[55.172074,25.098773],[55.166415,25.100065],[55.160645,25.100845],[55.154818,25.101105],[55.148991,25.100845],[55.143221,25.100065],[55.137562,25.098773],[55.13207,25.096982],[55.126796,25.09471],[55.121793,25.091977],[55.117107,25.088811],[55.112785,25.085241],[55.108867,25.081303],[55.105392,25.077033],[55.102393,25.072474],[55.099899,25.067669],[55.097934,25.062664],[55.096516,25.057508],[55.09566,25.05225],[55.095374,25.046941],[55.09566,25.041632],[55.096516,25.036374],[55.097934,25.031218],[55.099899,25.026213],[55.102393,25.021408],[55.105392,25.016849],[55.108867,25.012579],[55.112785,25.008641],[55.117107,25.005071],[55.121793,25.001905],[55.126796,24.999172],[55.13207,24.9969],[55.137562,24.995109],[55.143221,24.993817],[55.148991,24.993037],[55.154818,24.992777],[55.160645,24.993037],[55.166415,24.993817],[55.172074,24.995109],[55.177566,24.9969],[55.18284,24.999172],[55.187843,25.001905],[55.192529,25.005071],[55.196851,25.008641],[55.200769,25.012579],[55.204244,25.016849],[55.207243,25.021408],[55.209737,25.026213],[55.211702,25.031218],[55.21312,25.036374],[55.213976,25.041632],[55.214262,25.046941]]]},"properties":{"branch_id":"BD09","name":"Bedashing Beauty Emporium Jumeirah Park","radius_m":6000,"urban_context":"low_density","recommendation":"HOLD","overlapped_share":0.2153}},{"type":"Feature","geometry":{"type":"Polygon","coordinates":[[[55.194575,25.117327],[55.194289,25.122636],[55.193432,25.127894],[55.192014,25.13305],[55.190047,25.138055],[55.187552,25.14286],[55.184551,25.147419],[55.181074,25.151688],[55.177154,25.155627],[55.172829,25.159196],[55.168141,25.162363],[55.163135,25.165095],[55.157858,25.167368],[55.152363,25.169159],[55.146701,25.17045],[55.140927,25.17123],[55.135097,25.171491],[55.129267,25.17123],[55.123493,25.17045],[55.117831,25.169159],[55.112336,25.167368],[55.107059,25.165095],[55.102053,25.162363],[55.097365,25.159196],[55.09304,25.155627],[55.08912,25.151688],[55.085643,25.147419],[55.082642,25.14286],[55.080147,25.138055],[55.07818,25.13305],[55.076762,25.127894],[55.075905,25.122636],[55.075619,25.117327],[55.075905,25.112018],[55.076762,25.10676],[55.07818,25.101604],[55.080147,25.096599],[55.082642,25.091794],[55.085643,25.087235],[55.08912,25.082966],[55.09304,25.079027],[55.097365,25.075458],[55.102053,25.072291],[55.107059,25.069559],[55.112336,25.067286],[55.117831,25.065495],[55.123493,25.064204],[55.129267,25.063424],[55.135097,25.063163],[55.140927,25.063424],[55.146701,25.064204],[55.152363,25.065495],[55.157858,25.067286],[55.163135,25.069559],[55.168141,25.072291],[55.172829,25.075458],[55.177154,25.079027],[55.181074,25.082966],[55.184551,25.087235],[55.187552,25.091794],[55.190047,25.096599],[55.192014,25.101604],[55.193432,25.10676],[55.194289,25.112018],[55.194575,25.117327]]]},"properties":{"branch_id":"BD10","name":"Bedashing Wellness Lounge Palm Jumeirah","radius_m":6000,"urban_context":"low_density","recommendation":"HOLD","overlapped_share":0.2167}},{"type":"Feature","geometry":{"type":"Polygon","coordinates":[[[56.368253,25.1218],[56.368062,25.125339],[56.367491,25.128845],[56.366546,25.132282],[56.365235,25.135618],[56.363571,25.138822],[56.361571,25.141861],[56.359253,25.144707],[56.356639,25.147333],[56.353756,25.149713],[56.35063,25.151824],[56.347292,25.153646],[56.343775,25.155161],[56.340111,25.156354],[56.336336,25.157215],[56.332487,25.157735],[56.3286,25.157909],[56.324713,25.157735],[56.320864,25.157215],[56.317089,25.156354],[56.313425,25.155161],[56.309908,25.153646],[56.30657,25.151824],[56.303444,25.149713],[56.300561,25.147333],[56.297947,25.144707],[56.295629,25.141861],[56.293629,25.138822],[56.291965,25.135618],[56.290654,25.132282],[56.289709,25.128845],[56.289138,25.125339],[56.288947,25.1218],[56.289138,25.118261],[56.289709,25.114755],[56.290654,25.111318],[56.291965,25.107982],[56.293629,25.104778],[56.295629,25.101739],[56.297947,25.098893],[56.300561,25.096267],[56.303444,25.093887],[56.30657,25.091776],[56.309908,25.089954],[56.313425,25.088439],[56.317089,25.087246],[56.320864,25.086385],[56.324713,25.085865],[56.3286,25.085691],[56.332487,25.085865],[56.336336,25.086385],[56.340111,25.087246],[56.343775,25.088439],[56.347292,25.089954],[56.35063,25.091776],[56.353756,25.093887],[56.356639,25.096267],[56.359253,25.098893],[56.361571,25.101739],[56.363571,25.104778],[56.365235,25.107982],[56.366546,25.111318],[56.367491,25.114755],[56.368062,25.118261],[56.368253,25.1218]]]},"properties":{"branch_id":"BD11","name":"Bedashing Beauty Oasis Al Taif Mall","radius_m":4000,"urban_context":"suburban","recommendation":"HOLD","overlapped_share":0.0}},{"type":"Feature","geometry":{"type":"Polygon","coordinates":[[[54.534613,24.401975],[54.534423,24.405515],[54.533856,24.40902],[54.532916,24.412458],[54.531612,24.415795],[54.529958,24.418998],[54.527969,24.422038],[54.525664,24.424885],[54.523066,24.427511],[54.5202,24.429891],[54.517092,24.432002],[54.513773,24.433824],[54.510276,24.435339],[54.506633,24.436533],[54.50288,24.437394],[54.499053,24.437914],[54.495189,24.438088],[54.491325,24.437914],[54.487498,24.437394],[54.483745,24.436533],[54.480102,24.435339],[54.476605,24.433824],[54.473286,24.432002],[54.470178,24.429891],[54.467312,24.427511],[54.464714,24.424885],[54.462409,24.422038],[54.46042,24.418998],[54.458766,24.415795],[54.457462,24.412458],[54.456522,24.40902],[54.455955,24.405515],[54.455765,24.401975],[54.455955,24.398435],[54.456522,24.39493],[54.457462,24.391492],[54.458766,24.388155],[54.46042,24.384952],[54.462409,24.381912],[54.464714,24.379065],[54.467312,24.376439],[54.470178,24.374059],[54.473286,24.371948],[54.476605,24.370126],[54.480102,24.368611],[54.483745,24.367417],[54.487498,24.366556],[54.491325,24.366036],[54.495189,24.365862],[54.499053,24.366036],[54.50288,24.366556],[54.506633,24.367417],[54.510276,24.368611],[54.513773,24.370126],[54.517092,24.371948],[54.5202,24.374059],[54.523066,24.376439],[54.525664,24.379065],[54.527969,24.381912],[54.529958,24.384952],[54.531612,24.388155],[54.532916,24.391492],[54.533856,24.39493],[54.534423,24.398435],[54.534613,24.401975]]]},"properties":{"branch_id":"BD12","name":"Bedashing Beauty Retreat Al Maqta","radius_m":4000,"urban_context":"suburban","recommendation":"SHRINK","overlapped_share":0.6055}},{"type":"Feature","geometry":{"type":"Polygon","coordinates":[[[54.591015,24.340368],[54.590825,24.343908],[54.590258,24.347413],[54.589318,24.350851],[54.588016,24.354188],[54.586362,24.357392],[54.584374,24.360431],[54.582071,24.363278],[54.579474,24.365904],[54.576608,24.368284],[54.573502,24.370395],[54.570185,24.372217],[54.56669,24.373732],[54.563049,24.374926],[54.559298,24.375787],[54.555472,24.376307],[54.55161,24.376481],[54.547748,24.376307],[54.543922,24.375787],[54.540171,24.374926],[54.53653,24.373732],[54.533035,24.372217],[54.529718,24.370395],[54.526612,24.368284],[54.523746,24.365904],[54.521149,24.363278],[54.518846,24.360431],[54.516858,24.357392],[54.515204,24.354188],[54.513902,24.350851],[54.512962,24.347413],[54.512395,24.343908],[54.512205,24.340368],[54.512395,24.336828],[54.512962,24.333323],[54.513902,24.329885],[54.515204,24.326548],[54.516858,24.323344],[54.518846,24.320305],[54.521149,24.317458],[54.523746,24.314832],[54.526612,24.312452],[54.529718,24.310341],[54.533035,24.308519],[54.53653,24.307004],[54.540171,24.30581],[54.543922,24.304949],[54.547748,24.304429],[54.55161,24.304255],[54.555472,24.304429],[54.559298,24.304949],[54.563049,24.30581],[54.56669,24.307004],[54.570185,24.308519],[54.573502,24.310341],[54.576608,24.312452],[54.579474,24.314832],[54.582071,24.317458],[54.584374,24.320305],[54.586362,24.323344],[54.588016,24.326548],[54.589318,24.329885],[54.590258,24.333323],[54.590825,24.336828],[54.591015,24.340368]]]},"properties":{"branch_id":"BD13","name":"Bedashing Glamour Lounge Mohammed Bin Zayed City","radius_m":4000,"urban_context":"suburban","recommendation":"HOLD","overlapped_share":0.0424}},{"type":"Feature","geometry":{"type":"Polygon","coordinates":[[[54.534633,24.372736],[54.534515,24.374948],[54.53416,24.377139],[54.533573,24.379288],[54.532758,24.381373],[54.531725,24.383376],[54.530482,24.385276],[54.529042,24.387055],[54.527418,24.388696],[54.525627,24.390183],[54.523685,24.391503],[54.521612,24.392641],[54.519426,24.393588],[54.51715,24.394335],[54.514805,24.394873],[54.512414,24.395198],[54.509999,24.395307],[54.507584,24.395198],[54.505193,24.394873],[54.502848,24.394335],[54.500572,24.393588],[54.498386,24.392641],[54.496313,24.391503],[54.494371,24.390183],[54.49258,24.388696],[54.490956,24.387055],[54.489516,24.385276],[54.488273,24.383376],[54.48724,24.381373],[54.486425,24.379288],[54.485838,24.377139],[54.485483,24.374948],[54.485365,24.372736],[54.485483,24.370524],[54.485838,24.368333],[54.486425,24.366184],[54.48724,24.364099],[54.488273,24.362096],[54.489516,24.360196],[54.490956,24.358417],[54.49258,24.356776],[54.494371,24.355289],[54.496313,24.353969],[54.498386,24.352831],[54.500572,24.351884],[54.502848,24.351137],[54.505193,24.350599],[54.507584,24.350274],[54.509999,24.350165],[54.512414,24.350274],[54.514805,24.350599],[54.51715,24.351137],[54.519426,24.351884],[54.521612,24.352831],[54.523685,24.353969],[54.525627,24.355289],[54.527418,24.356776],[54.529042,24.358417],[54.530482,24.360196],[54.531725,24.362096],[54.532758,24.364099],[54.533573,24.366184],[54.53416,24.368333],[54.534515,24.370524],[54.534633,24.372736]]]},"properties":{"branch_id":"BD14","name":"Bedashing Beautification Spot Ministries Complex","radius_m":2500,"urban_context":"dense_urban","recommendation":"SHRINK","overlapped_share":0.6477}},{"type":"Feature","geometry":{"type":"Polygon","coordinates":[[[54.684863,24.366289],[54.684673,24.369829],[54.684106,24.373334],[54.683166,24.376772],[54.681863,24.380109],[54.680209,24.383313],[54.678221,24.386352],[54.675917,24.389199],[54.673319,24.391825],[54.670453,24.394205],[54.667347,24.396316],[54.664029,24.398138],[54.660533,24.399653],[54.656891,24.400847],[54.653139,24.401708],[54.649313,24.402228],[54.64545,24.402402],[54.641587,24.402228],[54.637761,24.401708],[54.634009,24.400847],[54.630367,24.399653],[54.626871,24.398138],[54.623553,24.396316],[54.620447,24.394205],[54.617581,24.391825],[54.614983,24.389199],[54.612679,24.386352],[54.610691,24.383313],[54.609037,24.380109],[54.607734,24.376772],[54.606794,24.373334],[54.606227,24.369829],[54.606037,24.366289],[54.606227,24.362749],[54.606794,24.359244],[54.607734,24.355806],[54.609037,24.352469],[54.610691,24.349265],[54.612679,24.346226],[54.614983,24.343379],[54.617581,24.340753],[54.620447,24.338373],[54.623553,24.336262],[54.626871,24.33444],[54.630367,24.332925],[54.634009,24.331731],[54.637761,24.33087],[54.641587,24.33035],[54.64545,24.330176],[54.649313,24.33035],[54.653139,24.33087],[54.656891,24.331731],[54.660533,24.332925],[54.664029,24.33444],[54.667347,24.336262],[54.670453,24.338373],[54.673319,24.340753],[54.675917,24.343379],[54.678221,24.346226],[54.680209,24.349265],[54.681863,24.352469],[54.683166,24.355806],[54.684106,24.359244],[54.684673,24.362749],[54.684863,24.366289]]]},"properties":{"branch_id":"BD15","name":"Bedashing Cosmetics Lounge Shakhbout City","radius_m":4000,"urban_context":"suburban","recommendation":"HOLD","overlapped_share":0.0}},{"type":"Feature","geometry":{"type":"Polygon","coordinates":[[[54.635268,24.439534],[54.635078,24.443074],[54.63451,24.446579],[54.63357,24.450017],[54.632266,24.453354],[54.630611,24.456557],[54.628622,24.459597],[54.626316,24.462444],[54.623717,24.465069],[54.62085,24.467449],[54.617741,24.469561],[54.614422,24.471382],[54.610924,24.472898],[54.60728,24.474092],[54.603526,24.474953],[54.599697,24.475473],[54.595832,24.475647],[54.591967,24.475473],[54.588138,24.474953],[54.584384,24.474092],[54.58074,24.472898],[54.577242,24.471382],[54.573923,24.469561],[54.570814,24.467449],[54.567947,24.465069],[54.565348,24.462444],[54.563042,24.459597],[54.561053,24.456557],[54.559398,24.453354],[54.558094,24.450017],[54.557154,24.446579],[54.556586,24.443074],[54.556396,24.439534],[54.556586,24.435994],[54.557154,24.432489],[54.558094,24.429051],[54.559398,24.425714],[54.561053,24.422511],[54.563042,24.419471],[54.565348,24.416624],[54.567947,24.413999],[54.570814,24.411619],[54.573923,24.409507],[54.577242,24.407686],[54.58074,24.40617],[54.584384,24.404976],[54.588138,24.404115],[54.591967,24.403595],[54.595832,24.403421],[54.599697,24.403595],[54.603526,24.404115],[54.60728,24.404976],[54.610924,24.40617],[54.614422,24.407686],[54.617741,24.409507],[54.62085,24.411619],[54.623717,24.413999],[54.626316,24.416624],[54.628622,24.419471],[54.630611,24.422511],[54.632266,24.425714],[54.63357,24.429051],[54.63451,24.432489],[54.635078,24.435994],[54.635268,24.439534]]]},"properties":{"branch_id":"BD16","name":"Bedashing Beauty Lounge Khalifa City A","radius_m":4000,"urban_context":"suburban","recommendation":"HOLD","overlapped_share":0.3986}},{"type":"Feature","geometry":{"type":"Polygon","coordinates":[[[54.497216,24.412509],[54.497026,24.416049],[54.496458,24.419554],[54.495518,24.422992],[54.494214,24.426329],[54.49256,24.429532],[54.490571,24.432572],[54.488266,24.435419],[54.485668,24.438045],[54.482801,24.440424],[54.479693,24.442536],[54.476374,24.444358],[54.472876,24.445873],[54.469233,24.447067],[54.46548,24.447928],[54.461653,24.448448],[54.457788,24.448622],[54.453923,24.448448],[54.450096,24.447928],[54.446343,24.447067],[54.4427,24.445873],[54.439202,24.444358],[54.435883,24.442536],[54.432775,24.440424],[54.429908,24.438045],[54.42731,24.435419],[54.425005,24.432572],[54.423016,24.429532],[54.421362,24.426329],[54.420058,24.422992],[54.419118,24.419554],[54.41855,24.416049],[54.41836,24.412509],[54.41855,24.408969],[54.419118,24.405464],[54.420058,24.402026],[54.421362,24.398689],[54.423016,24.395486],[54.425005,24.392446],[54.42731,24.389599],[54.429908,24.386973],[54.432775,24.384594],[54.435883,24.382482],[54.439202,24.38066],[54.4427,24.379145],[54.446343,24.377951],[54.450096,24.37709],[54.453923,24.37657],[54.457788,24.376396],[54.461653,24.37657],[54.46548,24.37709],[54.469233,24.377951],[54.472876,24.379145],[54.476374,24.38066],[54.479693,24.382482],[54.482801,24.384594],[54.485668,24.386973],[54.488266,24.389599],[54.490571,24.392446],[54.49256,24.395486],[54.494214,24.398689],[54.495518,24.402026],[54.496458,24.405464],[54.497026,24.408969],[54.497216,24.412509]]]},"properties":{"branch_id":"BD17","name":"Bedashing Beauty Hub Khaleej Al Arabi","radius_m":4000,"urban_context":"suburban","recommendation":"HOLD","overlapped_share":0.3951}},{"type":"Feature","geometry":{"type":"Polygon","coordinates":[[[54.770971,24.437113],[54.770686,24.442422],[54.769834,24.447681],[54.768424,24.452837],[54.766468,24.457843],[54.763986,24.462648],[54.761002,24.467208],[54.757544,24.471477],[54.753645,24.475416],[54.749344,24.478986],[54.744682,24.482153],[54.739702,24.484886],[54.734455,24.487159],[54.728989,24.488949],[54.723358,24.490241],[54.717616,24.491021],[54.711818,24.491282],[54.70602,24.491021],[54.700278,24.490241],[54.694647,24.488949],[54.689181,24.487159],[54.683934,24.484886],[54.678954,24.482153],[54.674292,24.478986],[54.669991,24.475416],[54.666092,24.471477],[54.662634,24.467208],[54.65965,24.462648],[54.657168,24.457843],[54.655212,24.452837],[54.653802,24.447681],[54.65295,24.442422],[54.652665,24.437113],[54.65295,24.431804],[54.653802,24.426545],[54.655212,24.421389],[54.657168,24.416383],[54.65965,24.411578],[54.662634,24.407018],[54.666092,24.402749],[54.669991,24.39881],[54.674292,24.39524],[54.678954,24.392073],[54.683934,24.38934],[54.689181,24.387067],[54.694647,24.385277],[54.700278,24.383985],[54.70602,24.383205],[54.711818,24.382944],[54.717616,24.383205],[54.723358,24.383985],[54.728989,24.385277],[54.734455,24.387067],[54.739702,24.38934],[54.744682,24.392073],[54.749344,24.39524],[54.753645,24.39881],[54.757544,24.402749],[54.761002,24.407018],[54.763986,24.411578],[54.766468,24.416383],[54.768424,24.421389],[54.769834,24.426545],[54.770686,24.431804],[54.770971,24.437113]]]},"properties":{"branch_id":"BD18","name":"Bedashing Grooming Lounge Al Falah Village 4","radius_m":6000,"urban_context":"low_density","recommendation":"HOLD","overlapped_share":0.0}},{"type":"Feature","geometry":{"type":"Polygon","coordinates":[[[54.411491,24.464462],[54.411373,24.466674],[54.411018,24.468865],[54.41043,24.471014],[54.409615,24.473099],[54.40858,24.475102],[54.407337,24.477001],[54.405896,24.47878],[54.404271,24.480422],[54.402478,24.481909],[54.400535,24.483229],[54.39846,24.484367],[54.396273,24.485314],[54.393995,24.48606],[54.391648,24.486599],[54.389255,24.486924],[54.386839,24.487032],[54.384423,24.486924],[54.38203,24.486599],[54.379683,24.48606],[54.377405,24.485314],[54.375218,24.484367],[54.373143,24.483229],[54.3712,24.481909],[54.369407,24.480422],[54.367782,24.47878],[54.366341,24.477001],[54.365098,24.475102],[54.364063,24.473099],[54.363248,24.471014],[54.36266,24.468865],[54.362305,24.466674],[54.362187,24.464462],[54.362305,24.46225],[54.36266,24.460059],[54.363248,24.45791],[54.364063,24.455825],[54.365098,24.453822],[54.366341,24.451923],[54.367782,24.450144],[54.369407,24.448502],[54.3712,24.447015],[54.373143,24.445695],[54.375218,24.444557],[54.377405,24.44361],[54.379683,24.442864],[54.38203,24.442325],[54.384423,24.442],[54.386839,24.441892],[54.389255,24.442],[54.391648,24.442325],[54.393995,24.442864],[54.396273,24.44361],[54.39846,24.444557],[54.400535,24.445695],[54.402478,24.447015],[54.404271,24.448502],[54.405896,24.450144],[54.407337,24.451923],[54.40858,24.453822],[54.409615,24.455825],[54.41043,24.45791],[54.411018,24.460059],[54.411373,24.46225],[54.411491,24.464462]]]},"properties":{"branch_id":"BD19","name":"Bedashing Aesthetic Lounge Delma, Kim Tower","radius_m":2500,"urban_context":"dense_urban","recommendation":"HOLD","overlapped_share":0.0}},{"type":"Feature","geometry":{"type":"Polygon","coordinates":[[[55.78459,24.22487],[55.784401,24.22841],[55.783834,24.231915],[55.782895,24.235353],[55.781593,24.23869],[55.779942,24.241894],[55.777955,24.244934],[55.775654,24.24778],[55.773059,24.250406],[55.770197,24.252786],[55.767093,24.254897],[55.76378,24.256719],[55.760287,24.258235],[55.756649,24.259429],[55.752902,24.26029],[55.74908,24.26081],[55.745221,24.260984],[55.741362,24.26081],[55.73754,24.26029],[55.733793,24.259429],[55.730155,24.258235],[55.726662,24.256719],[55.723349,24.254897],[55.720245,24.252786],[55.717383,24.250406],[55.714788,24.24778],[55.712487,24.244934],[55.7105,24.241894],[55.708849,24.23869],[55.707547,24.235353],[55.706608,24.231915],[55.706041,24.22841],[55.705852,24.22487],[55.706041,24.22133],[55.706608,24.217825],[55.707547,24.214387],[55.708849,24.21105],[55.7105,24.207846],[55.712487,24.204806],[55.714788,24.20196],[55.717383,24.199334],[55.720245,24.196954],[55.723349,24.194843],[55.726662,24.193021],[55.730155,24.191505],[55.733793,24.190311],[55.73754,24.18945],[55.741362,24.18893],[55.745221,24.188756],[55.74908,24.18893],[55.752902,24.18945],[55.756649,24.190311],[55.760287,24.191505],[55.76378,24.193021],[55.767093,24.194843],[55.770197,24.196954],[55.773059,24.199334],[55.775654,24.20196],[55.777955,24.204806],[55.779942,24.207846],[55.781593,24.21105],[55.782895,24.214387],[55.783834,24.217825],[55.784401,24.22133],[55.78459,24.22487]]]},"properties":{"branch_id":"BD20","name":"Bedashing Beauty Center Al Ain","radius_m":4000,"urban_context":"suburban","recommendation":"HOLD","overlapped_share":0.0}},{"type":"Feature","geometry":{"type":"Polygon","coordinates":[[[55.988862,25.755],[55.98867,25.758539],[55.988096,25.762044],[55.987146,25.765481],[55.985828,25.768817],[55.984156,25.77202],[55.982144,25.775059],[55.979814,25.777905],[55.977187,25.780531],[55.974288,25.78291],[55.971146,25.785021],[55.967791,25.786843],[55.964255,25.788358],[55.960571,25.789551],[55.956777,25.790412],[55.952907,25.790932],[55.949,25.791106],[55.945093,25.790932],[55.941223,25.790412],[55.937429,25.789551],[55.933745,25.788358],[55.930209,25.786843],[55.926854,25.785021],[55.923712,25.78291],[55.920813,25.780531],[55.918186,25.777905],[55.915856,25.775059],[55.913844,25.77202],[55.912172,25.768817],[55.910854,25.765481],[55.909904,25.762044],[55.90933,25.758539],[55.909138,25.755],[55.90933,25.751461],[55.909904,25.747956],[55.910854,25.744519],[55.912172,25.741183],[55.913844,25.73798],[55.915856,25.734941],[55.918186,25.732095],[55.920813,25.729469],[55.923712,25.72709],[55.926854,25.724979],[55.930209,25.723157],[55.933745,25.721642],[55.937429,25.720449],[55.941223,25.719588],[55.945093,25.719068],[55.949,25.718894],[55.952907,25.719068],[55.956777,25.719588],[55.960571,25.720449],[55.964255,25.721642],[55.967791,25.723157],[55.971146,25.724979],[55.974288,25.72709],[55.977187,25.729469],[55.979814,25.732095],[55.982144,25.734941],[55.984156,25.73798],[55.985828,25.741183],[55.987146,25.744519],[55.988096,25.747956],[55.98867,25.751461],[55.988862,25.755]]]},"properties":{"branch_id":"BD21","name":"Bedashing Beauty Lounge Al Neem City Center","radius_m":4000,"urban_context":"suburban","recommendation":"HOLD","overlapped_share":0.0}},{"type":"Feature","geometry":{"type":"Polygon","coordinates":[[[54.744298,24.548417],[54.744013,24.553726],[54.743161,24.558985],[54.741749,24.564141],[54.739792,24.569146],[54.737307,24.573952],[54.73432,24.578511],[54.730859,24.582781],[54.726957,24.58672],[54.722652,24.590289],[54.717986,24.593456],[54.713002,24.596189],[54.70775,24.598462],[54.702279,24.600253],[54.696643,24.601544],[54.690896,24.602324],[54.685093,24.602585],[54.67929,24.602324],[54.673543,24.601544],[54.667907,24.600253],[54.662436,24.598462],[54.657184,24.596189],[54.6522,24.593456],[54.647534,24.590289],[54.643229,24.58672],[54.639327,24.582781],[54.635866,24.578511],[54.632879,24.573952],[54.630394,24.569146],[54.628437,24.564141],[54.627025,24.558985],[54.626173,24.553726],[54.625888,24.548417],[54.626173,24.543108],[54.627025,24.537849],[54.628437,24.532693],[54.630394,24.527688],[54.632879,24.522882],[54.635866,24.518323],[54.639327,24.514053],[54.643229,24.510114],[54.647534,24.506545],[54.6522,24.503378],[54.657184,24.500645],[54.662436,24.498372],[54.667907,24.496581],[54.673543,24.49529],[54.67929,24.49451],[54.685093,24.494249],[54.690896,24.49451],[54.696643,24.49529],[54.702279,24.496581],[54.70775,24.498372],[54.713002,24.500645],[54.717986,24.503378],[54.722652,24.506545],[54.726957,24.510114],[54.730859,24.514053],[54.73432,24.518323],[54.737307,24.522882],[54.739792,24.527688],[54.741749,24.532693],[54.743161,24.537849],[54.744013,24.543108],[54.744298,24.548417]]]},"properties":{"branch_id":"BD22","name":"Bedashing Beauty Spa Shahama","radius_m":6000,"urban_context":"low_density","recommendation":"HOLD","overlapped_share":0.0003}},{"type":"Feature","geometry":{"type":"Polygon","coordinates":[[[54.64231,24.494282],[54.642025,24.499591],[54.641173,24.50485],[54.639762,24.510006],[54.637805,24.515011],[54.635322,24.519817],[54.632336,24.524376],[54.628877,24.528646],[54.624976,24.532585],[54.620673,24.536155],[54.616009,24.539321],[54.611027,24.542054],[54.605777,24.544327],[54.600309,24.546118],[54.594675,24.54741],[54.588931,24.54819],[54.58313,24.54845],[54.577329,24.54819],[54.571585,24.54741],[54.565951,24.546118],[54.560483,24.544327],[54.555233,24.542054],[54.550251,24.539321],[54.545587,24.536155],[54.541284,24.532585],[54.537383,24.528646],[54.533924,24.524376],[54.530938,24.519817],[54.528455,24.515011],[54.526498,24.510006],[54.525087,24.50485],[54.524235,24.499591],[54.52395,24.494282],[54.524235,24.488973],[54.525087,24.483714],[54.526498,24.478558],[54.528455,24.473553],[54.530938,24.468747],[54.533924,24.464188],[54.537383,24.459918],[54.541284,24.455979],[54.545587,24.452409],[54.550251,24.449243],[54.555233,24.44651],[54.560483,24.444237],[54.565951,24.442446],[54.571585,24.441154],[54.577329,24.440374],[54.58313,24.440114],[54.588931,24.440374],[54.594675,24.441154],[54.600309,24.442446],[54.605777,24.444237],[54.611027,24.44651],[54.616009,24.449243],[54.620673,24.452409],[54.624976,24.455979],[54.628877,24.459918],[54.632336,24.464188],[54.635322,24.468747],[54.637805,24.473553],[54.639762,24.478558],[54.641173,24.483714],[54.642025,24.488973],[54.64231,24.494282]]]},"properties":{"branch_id":"BD23","name":"Bedashing Beauty Salon West Yas","radius_m":6000,"urban_context":"low_density","recommendation":"HOLD","overlapped_share":0.1774}}]}
