{"type":"FeatureCollection","features":[{"type":"Feature","geometry":{"type":"Polygon","coordinates":[[[55.102378,25.072474],[55.103817,25.074787],[55.105378,25.077033],[55.107059,25.079207],[55.108854,25.081302],[55.11076,25.083315],[55.112773,25.085241],[55.114887,25.087074],[55.117096,25.08881],[55.119397,25.090446],[55.121783,25.091977],[55.124249,25.093399],[55.126788,25.09471],[55.129395,25.095905],[55.132063,25.096982],[55.134786,25.097939],[55.137557,25.098773],[55.14037,25.099482],[55.143218,25.100064],[55.146093,25.100519],[55.14899,25.100844],[55.1519,25.10104],[55.154818,25.101105],[55.157736,25.10104],[55.160646,25.100844],[55.163543,25.100519],[55.166418,25.100064],[55.169266,25.099482],[55.172079,25.098773],[55.17485,25.097939],[55.177573,25.096982],[55.180241,25.095905],[55.182848,25.09471],[55.185387,25.093399],[55.18769,25.092071],[55.187537,25.091794],[55.186098,25.089481],[55.184537,25.087235],[55.182856,25.085061],[55.181061,25.082966],[55.179155,25.080953],[55.177142,25.079027],[55.175028,25.077194],[55.172819,25.075458],[55.170518,25.073822],[55.168132,25.072291],[55.165666,25.070869],[55.163127,25.069558],[55.16052,25.068363],[55.157852,25.067286],[55.155129,25.066329],[55.152358,25.065495],[55.149545,25.064786],[55.146697,25.064204],[55.143822,25.063749],[55.140925,25.063424],[55.138015,25.063228],[55.135097,25.063163],[55.132179,25.063228],[55.129269,25.063424],[55.126372,25.063749],[55.123497,25.064204],[55.120649,25.064786],[55.117836,25.065495],[55.115065,25.066329],[55.112342,25.067286],[55.109674,25.068363],[55.107067,25.069558],[55.104528,25.070869],[55.102225,25.072197],[55.102378,25.072474]]]},"properties":{"pair_id":"BD09~BD10","branch_a":"BD09","branch_a_name":"Bedashing Beauty Emporium Jumeirah Park","branch_b":"BD10","branch_b_name":"Bedashing Wellness Lounge Palm Jumeirah","centroid_distance_m":8074,"overlap_area_km2":24.337,"share_of_a":0.2153,"share_of_b":0.2153}},{"type":"Feature","geometry":{"type":"Polygon","coordinates":[[[55.461119,25.211361],[55.460508,25.209678],[55.459807,25.208025],[55.459018,25.206404],[55.458142,25.204821],[55.457182,25.203279],[55.45614,25.201782],[55.455019,25.200333],[55.453821,25.198936],[55.452548,25.197594],[55.451205,25.19631],[55.449795,25.195088],[55.44832,25.19393],[55.446785,25.19284],[55.445192,25.19182],[55.443547,25.190871],[55.441852,25.189998],[55.440113,25.189201],[55.438332,25.188483],[55.436515,25.187845],[55.434666,25.187289],[55.432789,25.186816],[55.430888,25.186428],[55.428969,25.186125],[55.427036,25.185908],[55.425094,25.185778],[55.423147,25.185734],[55.4212,25.185778],[55.419258,25.185908],[55.417325,25.186125],[55.415406,25.186428],[55.413505,25.186816],[55.411628,25.187289],[55.409779,25.187845],[55.407962,25.188483],[55.406181,25.189201],[55.404442,25.189998],[55.402747,25.190871],[55.401102,25.19182],[55.399509,25.19284],[55.397974,25.19393],[55.396499,25.195088],[55.395089,25.19631],[55.393746,25.197594],[55.392636,25.198765],[55.39286,25.199502],[55.393471,25.201185],[55.394172,25.202838],[55.394961,25.204459],[55.395837,25.206042],[55.396797,25.207584],[55.397839,25.209081],[55.39896,25.21053],[55.400158,25.211927],[55.401431,25.213269],[55.402774,25.214553],[55.404184,25.215775],[55.405659,25.216933],[55.407194,25.218023],[55.408787,25.219043],[55.410432,25.219992],[55.412127,25.220865],[55.413866,25.221662],[55.415647,25.22238],[55.417464,25.223018],[55.419313,25.223574],[55.42119,25.224047],[55.423091,25.224435],[55.42501,25.224738],[55.426943,25.224955],[55.428885,25.225085],[55.430832,25.225129],[55.432779,25.225085],[55.434721,25.224955],[55.436654,25.224738],[55.438573,25.224435],[55.440474,25.224047],[55.442351,25.223574],[55.4442,25.223018],[55.446017,25.22238],[55.447798,25.221662],[55.449537,25.220865],[55.451232,25.219992],[55.452877,25.219043],[55.45447,25.218023],[55.456005,25.216933],[55.45748,25.215775],[55.45889,25.214553],[55.460233,25.213269],[55.461343,25.212098],[55.461119,25.211361]]]},"properties":{"pair_id":"BD01~BD04","branch_a":"BD01","branch_a_name":"Bedashing Beauty Lounge Mirdif 35","branch_b":"BD04","branch_b_name":"Bedashing Beauty Lounge Al Warqa City Mall","centroid_distance_m":3730,"overlap_area_km2":21.619,"share_of_a":0.4303,"share_of_b":0.4303}},{"type":"Feature","geometry":{"type":"Polygon","coordinates":[[[54.557145,24.446579],[54.55757,24.448309],[54.558086,24.450017],[54.558693,24.4517],[54.55939,24.453354],[54.560174,24.454974],[54.561045,24.456557],[54.561999,24.4581],[54.563035,24.459597],[54.56415,24.461046],[54.565341,24.462443],[54.566605,24.463786],[54.56794,24.465069],[54.569343,24.466292],[54.570809,24.467449],[54.572335,24.46854],[54.573918,24.46956],[54.575553,24.470509],[54.577238,24.471382],[54.578967,24.472179],[54.580737,24.472898],[54.582544,24.473535],[54.584382,24.474091],[54.586248,24.474564],[54.588137,24.474953],[54.590044,24.475256],[54.591966,24.475473],[54.593897,24.475603],[54.595832,24.475646],[54.597767,24.475603],[54.599698,24.475473],[54.60162,24.475256],[54.603527,24.474953],[54.605416,24.474564],[54.607282,24.474091],[54.60912,24.473535],[54.610927,24.472898],[54.612697,24.472179],[54.614426,24.471382],[54.616111,24.470509],[54.617746,24.46956],[54.619329,24.46854],[54.620855,24.467449],[54.622321,24.466292],[54.623724,24.465069],[54.625059,24.463786],[54.626323,24.462443],[54.627514,24.461046],[54.6286,24.459635],[54.62697,24.457905],[54.624967,24.455979],[54.622864,24.454146],[54.620665,24.452409],[54.618376,24.450773],[54.616001,24.449242],[54.613548,24.44782],[54.611021,24.44651],[54.608427,24.445314],[54.605772,24.444237],[54.603063,24.44328],[54.600305,24.442446],[54.597506,24.441737],[54.594673,24.441154],[54.591812,24.4407],[54.588929,24.440374],[54.586033,24.440179],[54.58313,24.440113],[54.580227,24.440179],[54.577331,24.440374],[54.574448,24.4407],[54.571587,24.441154],[54.568754,24.441737],[54.565955,24.442446],[54.563197,24.44328],[54.560488,24.444237],[54.557833,24.445314],[54.55698,24.445707],[54.557145,24.446579]]]},"properties":{"pair_id":"BD16~BD23","branch_a":"BD16","branch_a_name":"Bedashing Beauty Lounge Khalifa City A","branch_b":"BD23","branch_b_name":"Bedashing Beauty Salon West Yas","centroid_distance_m":6221,"overlap_area_km2":20.026,"share_of_a":0.3986,"share_of_b":0.1771}},{"type":"Feature","geometry":{"type":"Polygon","coordinates":[[[54.465976,24.377723],[54.464712,24.379065],[54.463522,24.380463],[54.462408,24.381912],[54.461372,24.383409],[54.460418,24.384952],[54.459548,24.386535],[54.458764,24.388155],[54.458068,24.389809],[54.457461,24.391492],[54.456945,24.3932],[54.456521,24.39493],[54.45619,24.396676],[54.455953,24.398435],[54.455811,24.400203],[54.455763,24.401975],[54.455811,24.403747],[54.455953,24.405515],[54.45619,24.407274],[54.456521,24.40902],[54.456945,24.41075],[54.457461,24.412458],[54.458068,24.414141],[54.458764,24.415795],[54.459548,24.417415],[54.460418,24.418998],[54.461372,24.420541],[54.462408,24.422038],[54.463522,24.423487],[54.464712,24.424885],[54.465976,24.426227],[54.467311,24.427511],[54.468712,24.428733],[54.470177,24.429891],[54.471703,24.430981],[54.473285,24.432002],[54.47492,24.43295],[54.476604,24.433824],[54.478332,24.434621],[54.480101,24.435339],[54.481907,24.435977],[54.483744,24.436533],[54.485609,24.437005],[54.486546,24.437198],[54.487001,24.436761],[54.488265,24.435419],[54.489455,24.434021],[54.490569,24.432572],[54.491605,24.431075],[54.492559,24.429532],[54.493429,24.427949],[54.494213,24.426329],[54.494909,24.424675],[54.495516,24.422992],[54.496032,24.421284],[54.496456,24.419554],[54.496787,24.417808],[54.497024,24.416049],[54.497166,24.414281],[54.497214,24.412509],[54.497166,24.410737],[54.497024,24.408969],[54.496787,24.40721],[54.496456,24.405464],[54.496032,24.403734],[54.495516,24.402026],[54.494909,24.400343],[54.494213,24.398689],[54.493429,24.397069],[54.492559,24.395486],[54.491605,24.393943],[54.490569,24.392446],[54.489455,24.390997],[54.488265,24.389599],[54.487001,24.388257],[54.485666,24.386973],[54.484265,24.385751],[54.4828,24.384593],[54.481274,24.383503],[54.479692,24.382482],[54.478057,24.381534],[54.476373,24.38066],[54.474645,24.379863],[54.472876,24.379145],[54.47107,24.378507],[54.469233,24.377951],[54.467368,24.377479],[54.466431,24.377286],[54.465976,24.377723]]]},"properties":{"pair_id":"BD12~BD17","branch_a":"BD12","branch_a_name":"Bedashing Beauty Retreat Al Maqta","branch_b":"BD17","branch_b_name":"Bedashing Beauty Hub Khaleej Al Arabi","centroid_distance_m":3964,"overlap_area_km2":19.849,"share_of_a":0.395,"share_of_b":0.395}},{"type":"Feature","geometry":{"type":"Polygon","coordinates":[[[54.529954,24.384952],[54.529,24.383409],[54.527965,24.381912],[54.526851,24.380463],[54.525661,24.379065],[54.524397,24.377723],[54.523063,24.376439],[54.521662,24.375217],[54.520197,24.374059],[54.518671,24.372969],[54.517089,24.371948],[54.515455,24.371],[54.513771,24.370126],[54.512043,24.369329],[54.510274,24.368611],[54.508469,24.367973],[54.506632,24.367417],[54.504767,24.366944],[54.502879,24.366556],[54.500973,24.366253],[54.499053,24.366036],[54.497123,24.365906],[54.495189,24.365862],[54.493255,24.365906],[54.491325,24.366036],[54.489405,24.366253],[54.487499,24.366556],[54.486231,24.366817],[54.4861,24.367252],[54.485835,24.368333],[54.485628,24.369424],[54.48548,24.370524],[54.485391,24.371629],[54.485362,24.372736],[54.485391,24.373843],[54.48548,24.374948],[54.485628,24.376048],[54.485835,24.377139],[54.4861,24.37822],[54.486423,24.379288],[54.486802,24.38034],[54.487237,24.381373],[54.487727,24.382386],[54.488271,24.383376],[54.488867,24.38434],[54.489514,24.385276],[54.49021,24.386181],[54.490954,24.387055],[54.491744,24.387893],[54.492578,24.388696],[54.493454,24.38946],[54.494369,24.390183],[54.495323,24.390865],[54.496311,24.391503],[54.497333,24.392095],[54.498385,24.392641],[54.499465,24.39314],[54.500571,24.393588],[54.501699,24.393987],[54.502847,24.394335],[54.504013,24.39463],[54.505192,24.394873],[54.506384,24.395062],[54.507584,24.395198],[54.50879,24.395279],[54.509999,24.395307],[54.511208,24.395279],[54.512414,24.395198],[54.513614,24.395062],[54.514806,24.394873],[54.515985,24.39463],[54.517151,24.394335],[54.518299,24.393987],[54.519427,24.393588],[54.520533,24.39314],[54.521613,24.392641],[54.522665,24.392095],[54.523687,24.391503],[54.524675,24.390865],[54.525629,24.390183],[54.526544,24.38946],[54.52742,24.388696],[54.528254,24.387893],[54.529044,24.387055],[54.529788,24.386181],[54.530279,24.385543],[54.529954,24.384952]]]},"properties":{"pair_id":"BD12~BD14","branch_a":"BD12","branch_a_name":"Bedashing Beauty Retreat Al Maqta","branch_b":"BD14","branch_b_name":"Bedashing Beautification Spot Ministries Complex","centroid_distance_m":3580,"overlap_area_km2":10.577,"share_of_a":0.2105,"share_of_b":0.5389}},{"type":"Feature","geometry":{"type":"Polygon","coordinates":[[[55.423093,25.153605],[55.421193,25.153993],[55.419317,25.154466],[55.417468,25.155022],[55.415652,25.15566],[55.413872,25.156378],[55.412133,25.157175],[55.410438,25.158048],[55.408794,25.158996],[55.407202,25.160017],[55.405667,25.161107],[55.404192,25.162265],[55.402782,25.163487],[55.40144,25.164771],[55.400168,25.166113],[55.39897,25.16751],[55.397849,25.168959],[55.396807,25.170456],[55.395848,25.171998],[55.394972,25.173581],[55.394183,25.175202],[55.393483,25.176855],[55.392872,25.178538],[55.392353,25.180246],[55.391926,25.181975],[55.391593,25.183722],[55.391355,25.185481],[55.391212,25.187248],[55.391164,25.18902],[55.391212,25.190792],[55.391355,25.192559],[55.391518,25.193767],[55.392324,25.193398],[55.394865,25.192088],[55.397333,25.190665],[55.39972,25.189135],[55.402023,25.187499],[55.404234,25.185763],[55.40635,25.183929],[55.408363,25.182004],[55.410271,25.179991],[55.412068,25.177895],[55.413749,25.175722],[55.415312,25.173476],[55.416751,25.171163],[55.418064,25.168788],[55.419248,25.166357],[55.420299,25.163877],[55.421215,25.161353],[55.421994,25.158791],[55.422634,25.156197],[55.423129,25.153599],[55.423093,25.153605]]]},"properties":{"pair_id":"BD04~BD05","branch_a":"BD04","branch_a_name":"Bedashing Beauty Lounge Al Warqa City Mall","branch_b":"BD05","branch_b_name":"Bedashing Nad Al Sheba","centroid_distance_m":8254,"overlap_area_km2":6.508,"share_of_a":0.1295,"share_of_b":0.0576}},{"type":"Feature","geometry":{"type":"Polygon","coordinates":[[[55.46945,25.327342],[55.469023,25.325612],[55.468503,25.323904],[55.467892,25.322221],[55.46719,25.320568],[55.4664,25.318948],[55.465524,25.317365],[55.464563,25.315823],[55.46352,25.314325],[55.462398,25.312876],[55.461198,25.311479],[55.459925,25.310137],[55.458581,25.308854],[55.457169,25.307632],[55.455693,25.306474],[55.454156,25.305384],[55.452562,25.304363],[55.450915,25.303415],[55.449219,25.302541],[55.447478,25.301744],[55.447092,25.301589],[55.447356,25.302968],[55.447783,25.304698],[55.448303,25.306406],[55.448914,25.308089],[55.449616,25.309742],[55.450406,25.311362],[55.451282,25.312945],[55.452243,25.314487],[55.453286,25.315985],[55.454408,25.317434],[55.455608,25.318831],[55.456881,25.320173],[55.458225,25.321456],[55.459637,25.322678],[55.461113,25.323836],[55.46265,25.324926],[55.464244,25.325947],[55.465891,25.326895],[55.467587,25.327769],[55.469328,25.328566],[55.469714,25.328721],[55.46945,25.327342]]]},"properties":{"pair_id":"BD02~BD08","branch_a":"BD02","branch_a_name":"Bedashing Beauty Studio Zawaya Walk","branch_b":"BD08","branch_b_name":"Bedashing Glam Haven Muwaileh","centroid_distance_m":7054,"overlap_area_km2":2.406,"share_of_a":0.0479,"share_of_b":0.0479}},{"type":"Feature","geometry":{"type":"Polygon","coordinates":[[[54.513897,24.350851],[54.514504,24.352534],[54.5152,24.354188],[54.515984,24.355808],[54.516853,24.357392],[54.517807,24.358934],[54.518842,24.360431],[54.519955,24.36188],[54.521146,24.363278],[54.522409,24.36462],[54.523743,24.365904],[54.525144,24.367126],[54.526608,24.368284],[54.528133,24.369374],[54.529715,24.370395],[54.531349,24.371343],[54.533032,24.372217],[54.534625,24.372951],[54.53463,24.372736],[54.534601,24.371629],[54.534512,24.370524],[54.534364,24.369424],[54.534157,24.368333],[54.533892,24.367252],[54.53357,24.366184],[54.53319,24.365132],[54.532755,24.364099],[54.532265,24.363086],[54.531722,24.362096],[54.531126,24.361132],[54.530479,24.360196],[54.529783,24.359291],[54.529039,24.358417],[54.52825,24.357579],[54.527416,24.356776],[54.52654,24.356012],[54.525625,24.355289],[54.524672,24.354607],[54.523683,24.353969],[54.522662,24.353377],[54.52161,24.352831],[54.52053,24.352332],[54.519425,24.351883],[54.518297,24.351485],[54.517149,24.351137],[54.515984,24.350842],[54.514804,24.350599],[54.513771,24.350435],[54.513897,24.350851]]]},"properties":{"pair_id":"BD13~BD14","branch_a":"BD13","branch_a_name":"Bedashing Glamour Lounge Mohammed Bin Zayed City","branch_b":"BD14","branch_b_name":"Bedashing Beautification Spot Ministries Complex","centroid_distance_m":5542,"overlap_area_km2":2.134,"share_of_a":0.0425,"share_of_b":0.1087}},{"type":"Feature","geometry":{"type":"Polygon","coordinates":[[[55.191403,25.100163],[55.191314,25.101268],[55.191284,25.102375],[55.191314,25.103482],[55.191403,25.104587],[55.191552,25.105686],[55.19176,25.106778],[55.192027,25.107859],[55.192351,25.108926],[55.192733,25.109978],[55.19317,25.111012],[55.193663,25.112024],[55.19421,25.113014],[55.194389,25.113301],[55.194285,25.112018],[55.193928,25.109379],[55.193429,25.10676],[55.192789,25.104166],[55.19201,25.101604],[55.191426,25.099994],[55.191403,25.100163]]]},"properties":{"pair_id":"BD07~BD10","branch_a":"BD07","branch_a_name":"Bedashing Beauty Suite Umm Suqeim","branch_b":"BD10","branch_b_name":"Bedashing Wellness Lounge Palm Jumeirah","centroid_distance_m":8320,"overlap_area_km2":0.165,"share_of_a":0.0084,"share_of_b":0.0015}},{"type":"Feature","geometry":{"type":"Polygon","coordinates":[[[54.635876,24.518323],[54.634322,24.520569],[54.63289,24.522882],[54.631584,24.525257],[54.631439,24.525556],[54.632347,24.524376],[54.633901,24.52213],[54.635333,24.519817],[54.636639,24.517442],[54.636784,24.517143],[54.635876,24.518323]]]},"properties":{"pair_id":"BD22~BD23","branch_a":"BD22","branch_a_name":"Bedashing Beauty Spa Shahama","branch_b":"BD23","branch_b_name":"Bedashing Beauty Salon West Yas","centroid_distance_m":11943,"overlap_area_km2":0.035,"share_of_a":0.0003,"share_of_b":0.0003}}]}
